[
  {
    "OBJECT_NAME": "STARLINK-30887",
    "OBJECT_ID": "23178W",
    "EPOCH": "2025-11-11T01:37:47.702208",
    "MEAN_MOTION": 15.30190217,
    "ECCENTRICITY": 0.0001162,
    "INCLINATION": 53.1611,
    "RA_OF_ASC_NODE": 192.3224,
    "ARG_OF_PERICENTER": 90.9408,
    "MEAN_ANOMALY": 269.1726,
    "EPHEMERIS_TYPE": 0,
    "CLASSIFICATION_TYPE": "U",
    "NORAD_CAT_ID": 58394,
    "ELEMENT_SET_NO": 999,
    "REV_AT_EPOCH": 11170,
    "BSTAR": 0.00011115,
    "MEAN_MOTION_DOT": 2.933e-05,
    "MEAN_MOTION_DDOT": 0.0,
    "TLE_LINE1": "1 58394U 23178W   25315.06791322  .00002933  00000+0  11115-3 0  9994",
    "TLE_LINE2": "2 58394  53.1611 192.3224 0001162  90.9408 269.1726 15.30190217111703",
    "COMMENT": "Grouped by shell and plane from TLE"
  },
  {
    "OBJECT_NAME": "STARLINK-30934",
    "OBJECT_ID": "23178X",
    "EPOCH": "2025-11-11T01:04:25.224960",
    "MEAN_MOTION": 15.30196969,
    "ECCENTRICITY": 8.26e-05,
    "INCLINATION": 53.1613,
    "RA_OF_ASC_NODE": 192.4315,
    "ARG_OF_PERICENTER": 111.3475,
    "MEAN_ANOMALY": 248.7614,
    "EPHEMERIS_TYPE": 0,
    "CLASSIFICATION_TYPE": "U",
    "NORAD_CAT_ID": 58395,
    "ELEMENT_SET_NO": 999,
    "REV_AT_EPOCH": 11165,
    "BSTAR": 3.0463000000000003e-05,
    "MEAN_MOTION_DOT": 5.43e-06,
    "MEAN_MOTION_DDOT": 0.0,
    "TLE_LINE1": "1 58395U 23178X   25315.04473640  .00000543  00000+0  30463-4 0  9996",
    "TLE_LINE2": "2 58395  53.1613 192.4315 0000826 111.3475 248.7614 15.30196969111659",
    "COMMENT": "Grouped by shell and plane from TLE"
  },
  {
    "OBJECT_NAME": "STARLINK-30995",
    "OBJECT_ID": "23186B",
    "EPOCH": "2025-11-11T00:34:45.326208",
    "MEAN_MOTION": 15.29658567,
    "ECCENTRICITY": 0.0003321,
    "INCLINATION": 42.9993,
    "RA_OF_ASC_NODE": 198.5833,
    "ARG_OF_PERICENTER": 249.7364,
    "MEAN_ANOMALY": 110.3132,
    "EPHEMERIS_TYPE": 0,
    "CLASSIFICATION_TYPE": "U",
    "NORAD_CAT_ID": 58474,
    "ELEMENT_SET_NO": 999,
    "REV_AT_EPOCH": 10993,
    "BSTAR": 0.00099668,
    "MEAN_MOTION_DOT": 0.00029084,
    "MEAN_MOTION_DDOT": 0.0,
    "TLE_LINE1": "1 58474U 23186B   25315.02413572  .00029084  00000+0  99668-3 0  9991",
    "TLE_LINE2": "2 58474  42.9993 198.5833 0003321 249.7364 110.3132 15.29658567109934",
    "COMMENT": "Grouped by shell and plane from TLE"
  },
  {
    "OBJECT_NAME": "STARLINK-31158",
    "OBJECT_ID": "24019B",
    "EPOCH": "2025-11-11T02:12:23.389632",
    "MEAN_MOTION": 15.27602607,
    "ECCENTRICITY": 0.000166,
    "INCLINATION": 42.9975,
    "RA_OF_ASC_NODE": 198.7635,
    "ARG_OF_PERICENTER": 252.7042,
    "MEAN_ANOMALY": 107.3628,
    "EPHEMERIS_TYPE": 0,
    "CLASSIFICATION_TYPE": "U",
    "NORAD_CAT_ID": 58854,
    "ELEMENT_SET_NO": 999,
    "REV_AT_EPOCH": 10094,
    "BSTAR": 0.0003408,
    "MEAN_MOTION_DOT": 9.134e-05,
    "MEAN_MOTION_DDOT": 0.0,
    "TLE_LINE1": "1 58854U 24019B   25315.09193738  .00009134  00000+0  34080-3 0  9996",
    "TLE_LINE2": "2 58854  42.9975 198.7635 0001660 252.7042 107.3628 15.27602607100949",
    "COMMENT": "Grouped by shell and plane from TLE"
  },
  {
    "OBJECT_NAME": "STARLINK-31237",
    "OBJECT_ID": "24019C",
    "EPOCH": "2025-11-11T01:33:34.500096",
    "MEAN_MOTION": 15.27556812,
    "ECCENTRICITY": 0.0001558,
    "INCLINATION": 43.0065,
    "RA_OF_ASC_NODE": 198.5844,
    "ARG_OF_PERICENTER": 281.8079,
    "MEAN_ANOMALY": 78.2598,
    "EPHEMERIS_TYPE": 0,
    "CLASSIFICATION_TYPE": "U",
    "NORAD_CAT_ID": 58855,
    "ELEMENT_SET_NO": 999,
    "REV_AT_EPOCH": 10094,
    "BSTAR": 0.0,
    "MEAN_MOTION_DOT": -4.464e-05,
    "MEAN_MOTION_DDOT": 0.0,
    "TLE_LINE1": "1 58855U 24019C   25315.06498264 -.00004464  00000+0 -15291-3 0  9992",
    "TLE_LINE2": "2 58855  43.0065 198.5844 0001558 281.8079  78.2598 15.27556812100949",
    "COMMENT": "Grouped by shell and plane from TLE"
  },
  {
    "OBJECT_NAME": "STARLINK-31244",
    "OBJECT_ID": "24019D",
    "EPOCH": "2025-11-11T00:23:25.646784",
    "MEAN_MOTION": 15.27594975,
    "ECCENTRICITY": 0.0001424,
    "INCLINATION": 43.0028,
    "RA_OF_ASC_NODE": 199.0643,
    "ARG_OF_PERICENTER": 278.7693,
    "MEAN_ANOMALY": 81.2997,
    "EPHEMERIS_TYPE": 0,
    "CLASSIFICATION_TYPE": "U",
    "NORAD_CAT_ID": 58856,
    "ELEMENT_SET_NO": 999,
    "REV_AT_EPOCH": 10093,
    "BSTAR": 0.00010699,
    "MEAN_MOTION_DOT": 2.684e-05,
    "MEAN_MOTION_DDOT": 0.0,
    "TLE_LINE1": "1 58856U 24019D   25315.01626906  .00002684  00000+0  10699-3 0  9991",
    "TLE_LINE2": "2 58856  43.0028 199.0643 0001424 278.7693  81.2997 15.27594975100939",
    "COMMENT": "Grouped by shell and plane from TLE"
  },
  {
    "OBJECT_NAME": "STARLINK-31226",
    "OBJECT_ID": "24019F",
    "EPOCH": "2025-11-11T02:19:49.655136",
    "MEAN_MOTION": 15.27576188,
    "ECCENTRICITY": 8.32e-05,
    "INCLINATION": 42.9959,
    "RA_OF_ASC_NODE": 198.8047,
    "ARG_OF_PERICENTER": 329.0075,
    "MEAN_ANOMALY": 31.0727,
    "EPHEMERIS_TYPE": 0,
    "CLASSIFICATION_TYPE": "U",
    "NORAD_CAT_ID": 58858,
    "ELEMENT_SET_NO": 999,
    "REV_AT_EPOCH": 10094,
    "BSTAR": 0.00018382,
    "MEAN_MOTION_DOT": 4.799e-05,
    "MEAN_MOTION_DDOT": 0.0,
    "TLE_LINE1": "1 58858U 24019F   25315.09710249  .00004799  00000+0  18382-3 0  9991",
    "TLE_LINE2": "2 58858  42.9959 198.8047 0000832 329.0075  31.0727 15.27576188100944",
    "COMMENT": "Grouped by shell and plane from TLE"
  },
  {
    "OBJECT_NAME": "STARLINK-31197",
    "OBJECT_ID": "24019G",
    "EPOCH": "2025-11-11T01:02:19.397184",
    "MEAN_MOTION": 15.27573938,
    "ECCENTRICITY": 9.18e-05,
    "INCLINATION": 42.9982,
    "RA_OF_ASC_NODE": 199.2576,
    "ARG_OF_PERICENTER": 7.0101,
    "MEAN_ANOMALY": 353.0763,
    "EPHEMERIS_TYPE": 0,
    "CLASSIFICATION_TYPE": "U",
    "NORAD_CAT_ID": 58859,
    "ELEMENT_SET_NO": 999,
    "REV_AT_EPOCH": 10093,
    "BSTAR": 0.00021027,
    "MEAN_MOTION_DOT": 5.527e-05,
    "MEAN_MOTION_DDOT": 0.0,
    "TLE_LINE1": "1 58859U 24019G   25315.04328006  .00005527  00000+0  21027-3 0  9993",
    "TLE_LINE2": "2 58859  42.9982 199.2576 0000918   7.0101 353.0763 15.27573938100937",
    "COMMENT": "Grouped by shell and plane from TLE"
  },
  {
    "OBJECT_NAME": "STARLINK-31213",
    "OBJECT_ID": "24019H",
    "EPOCH": "2025-11-11T00:25:16.339872",
    "MEAN_MOTION": 15.27618509,
    "ECCENTRICITY": 0.0001434,
    "INCLINATION": 43.0024,
    "RA_OF_ASC_NODE": 199.0704,
    "ARG_OF_PERICENTER": 266.8288,
    "MEAN_ANOMALY": 93.2399,
    "EPHEMERIS_TYPE": 0,
    "CLASSIFICATION_TYPE": "U",
    "NORAD_CAT_ID": 58860,
    "ELEMENT_SET_NO": 999,
    "REV_AT_EPOCH": 10093,
    "BSTAR": 0.0,
    "MEAN_MOTION_DOT": -6.469e-05,
    "MEAN_MOTION_DDOT": 0.0,
    "TLE_LINE1": "1 58860U 24019H   25315.01755023 -.00006469  00000+0 -22549-3 0  9993",
    "TLE_LINE2": "2 58860  43.0024 199.0704 0001434 266.8288  93.2399 15.27618509100936",
    "COMMENT": "Grouped by shell and plane from TLE"
  },
  {
    "OBJECT_NAME": "STARLINK-31199",
    "OBJECT_ID": "24019J",
    "EPOCH": "2025-11-11T00:19:43.896864",
    "MEAN_MOTION": 15.27569096,
    "ECCENTRICITY": 0.0001024,
    "INCLINATION": 43.0049,
    "RA_OF_ASC_NODE": 199.0464,
    "ARG_OF_PERICENTER": 284.1633,
    "MEAN_ANOMALY": 75.9105,
    "EPHEMERIS_TYPE": 0,
    "CLASSIFICATION_TYPE": "U",
    "NORAD_CAT_ID": 58861,
    "ELEMENT_SET_NO": 999,
    "REV_AT_EPOCH": 10093,
    "BSTAR": 0.00018728,
    "MEAN_MOTION_DOT": 4.893e-05,
    "MEAN_MOTION_DDOT": 0.0,
    "TLE_LINE1": "1 58861U 24019J   25315.01370251  .00004893  00000+0  18728-3 0  9991",
    "TLE_LINE2": "2 58861  43.0049 199.0464 0001024 284.1633  75.9105 15.27569096100937",
    "COMMENT": "Grouped by shell and plane from TLE"
  },
  {
    "OBJECT_NAME": "STARLINK-31200",
    "OBJECT_ID": "24019K",
    "EPOCH": "2025-11-11T01:55:43.555008",
    "MEAN_MOTION": 15.27594558,
    "ECCENTRICITY": 0.000133,
    "INCLINATION": 43.003,
    "RA_OF_ASC_NODE": 198.68,
    "ARG_OF_PERICENTER": 266.9778,
    "MEAN_ANOMALY": 93.0922,
    "EPHEMERIS_TYPE": 0,
    "CLASSIFICATION_TYPE": "U",
    "NORAD_CAT_ID": 58862,
    "ELEMENT_SET_NO": 999,
    "REV_AT_EPOCH": 10094,
    "BSTAR": 0.0001035,
    "MEAN_MOTION_DOT": 2.588e-05,
    "MEAN_MOTION_DDOT": 0.0,
    "TLE_LINE1": "1 58862U 24019K   25315.08036522  .00002588  00000+0  10350-3 0  9991",
    "TLE_LINE2": "2 58862  43.0030 198.6800 0001330 266.9778  93.0922 15.27594558100945",
    "COMMENT": "Grouped by shell and plane from TLE"
  },
  {
    "OBJECT_NAME": "STARLINK-31149",
    "OBJECT_ID": "24019L",
    "EPOCH": "2025-11-11T01:16:52.772448",
    "MEAN_MOTION": 15.27601494,
    "ECCENTRICITY": 8.97e-05,
    "INCLINATION": 42.9991,
    "RA_OF_ASC_NODE": 198.4822,
    "ARG_OF_PERICENTER": 241.6227,
    "MEAN_ANOMALY": 118.4534,
    "EPHEMERIS_TYPE": 0,
    "CLASSIFICATION_TYPE": "U",
    "NORAD_CAT_ID": 58863,
    "ELEMENT_SET_NO": 999,
    "REV_AT_EPOCH": 10094,
    "BSTAR": 2.5521000000000002e-05,
    "MEAN_MOTION_DOT": 4.41e-06,
    "MEAN_MOTION_DDOT": 0.0,
    "TLE_LINE1": "1 58863U 24019L   25315.05338857  .00000441  00000+0  25521-4 0  9998",
    "TLE_LINE2": "2 58863  42.9991 198.4822 0000897 241.6227 118.4534 15.27601494100947",
    "COMMENT": "Grouped by shell and plane from TLE"
  },
  {
    "OBJECT_NAME": "STARLINK-31242",
    "OBJECT_ID": "24019M",
    "EPOCH": "2025-11-11T02:04:59.533824",
    "MEAN_MOTION": 15.2760476,
    "ECCENTRICITY": 0.0001419,
    "INCLINATION": 43.001,
    "RA_OF_ASC_NODE": 198.7299,
    "ARG_OF_PERICENTER": 266.1375,
    "MEAN_ANOMALY": 93.9314,
    "EPHEMERIS_TYPE": 0,
    "CLASSIFICATION_TYPE": "U",
    "NORAD_CAT_ID": 58864,
    "ELEMENT_SET_NO": 999,
    "REV_AT_EPOCH": 10094,
    "BSTAR": 0.00043453999999999997,
    "MEAN_MOTION_DOT": 0.00011724,
    "MEAN_MOTION_DDOT": 0.0,
    "TLE_LINE1": "1 58864U 24019M   25315.08680016  .00011724  00000+0  43454-3 0  9999",
    "TLE_LINE2": "2 58864  43.0010 198.7299 0001419 266.1375  93.9314 15.27604760100942",
    "COMMENT": "Grouped by shell and plane from TLE"
  }
]